STARLINK-32339          
1 61640U 24191V   26068.25184897 -.00001814  00000+0 -56405-4 0  9999
2 61640  43.0042 156.6133 0000941 246.6830 113.3923 15.27579965 77462
FLOCK 4G-36             
1 62675U 25009BU  26068.70726311  .00013573  00000+0  51122-3 0  9993
2 62675  97.4053 151.0513 0003474 324.2456  35.8550 15.27209548 63701
